[{"OBJECT_NAME":"EDISON-1","OBJECT_ID":"2025-009B","EPOCH":"2026-03-09T19:16:13.822464","MEAN_MOTION":15.29042904,"ECCENTRICITY":0.00043285,"INCLINATION":97.4042,"RA_OF_ASC_NODE":151.6286,"ARG_OF_PERICENTER":306.4185,"MEAN_ANOMALY":53.6655,"EPHEMERIS_TYPE":0,"CLASSIFICATION_TYPE":"U","NORAD_CAT_ID":62610,"ELEMENT_SET_NO":999,"REV_AT_EPOCH":6375,"BSTAR":0.00052814963,"MEAN_MOTION_DOT":0.00014835,"MEAN_MOTION_DDOT":0},{"OBJECT_NAME":"STARLINK-33618","OBJECT_ID":"2025-063M","EPOCH":"2026-03-09T22:21:53.761536","MEAN_MOTION":15.30222717,"ECCENTRICITY":0.00016959,"INCLINATION":53.1607,"RA_OF_ASC_NODE":48.6989,"ARG_OF_PERICENTER":89.6814,"MEAN_ANOMALY":270.4381,"EPHEMERIS_TYPE":0,"CLASSIFICATION_TYPE":"U","NORAD_CAT_ID":63374,"ELEMENT_SET_NO":999,"REV_AT_EPOCH":5483,"BSTAR":0.0013630213,"MEAN_MOTION_DOT":0.00040257,"MEAN_MOTION_DDOT":0}]
